{
  "type": "FeatureCollection",
  "features": [
    {
      "type": "Feature",
      "properties": {
        "norad_id": 31369,
        "name": "FENGYUN 1C DEB",
        "group": "fengyun-1c-debris",
        "lat": -81.33847236184207,
        "lon": 52.653629145590315,
        "alt_km": 800.1969337805858,
        "timestamp": "2025-12-12T16:50:33.426824+00:00",
        "meta_object_name": "FENGYUN 1C DEB",
        "meta_object_id": "1999-025BRZ",
        "meta_epoch": "2025-12-11T04:19:15.253824",
        "meta_mean_motion": 14.19407424,
        "meta_eccentricity": 0.00545514,
        "meta_inclination": 98.6193,
        "meta_ra_of_asc_node": 326.4983,
        "meta_arg_of_pericenter": 304.0379,
        "meta_mean_anomaly": 115.5695,
        "meta_ephemeris_type": 0,
        "meta_classification_type": "U",
        "meta_norad_cat_id": 31369,
        "meta_element_set_no": 999,
        "meta_rev_at_epoch": 64305,
        "meta_bstar": 0.00043400401,
        "meta_mean_motion_dot": 8.83e-06,
        "meta_mean_motion_ddot": 0,
        "tle_line1": "1 31369U 99025BRZ 25345.18003766  .00000883  00000+0  43400-3 0  9999",
        "tle_line2": "2 31369  98.6193 326.4983 0054551 304.0379 115.5695 14.19407424643057"
      },
      "geometry": {
        "type": "Point",
        "coordinates": [
          52.653629145590315,
          -81.33847236184207
        ]
      }
    },
    {
      "type": "Feature",
      "properties": {
        "norad_id": 31370,
        "name": "FENGYUN 1C DEB",
        "group": "fengyun-1c-debris",
        "lat": 46.329154010547505,
        "lon": -22.57355020712568,
        "alt_km": 864.386444839608,
        "timestamp": "2025-12-12T16:50:33.426833+00:00",
        "meta_object_name": "FENGYUN 1C DEB",
        "meta_object_id": "1999-025BSA",
        "meta_epoch": "2025-12-09T10:15:45.050400",
        "meta_mean_motion": 14.0970042,
        "meta_eccentricity": 0.00335624,
        "meta_inclination": 98.7542,
        "meta_ra_of_asc_node": 343.5312,
        "meta_arg_of_pericenter": 306.6769,
        "meta_mean_anomaly": 53.1319,
        "meta_ephemeris_type": 0,
        "meta_classification_type": "U",
        "meta_norad_cat_id": 31370,
        "meta_element_set_no": 999,
        "meta_rev_at_epoch": 96247,
        "meta_bstar": 0.00064849325,
        "meta_mean_motion_dot": 1.1e-05,
        "meta_mean_motion_ddot": 0,
        "tle_line1": "1 31370U 99025BSA 25343.42760475  .00001100  00000+0  64849-3 0  9996",
        "tle_line2": "2 31370  98.7542 343.5312 0033562 306.6769  53.1319 14.09700420962475"
      },
      "geometry": {
        "type": "Point",
        "coordinates": [
          -22.57355020712568,
          46.329154010547505
        ]
      }
    },
    {
      "type": "Feature",
      "properties": {
        "norad_id": 31371,
        "name": "FENGYUN 1C DEB",
        "group": "fengyun-1c-debris",
        "lat": -48.68329394629566,
        "lon": 29.804502192284442,
        "alt_km": 859.8248815710667,
        "timestamp": "2025-12-12T16:50:33.426843+00:00",
        "meta_object_name": "FENGYUN 1C DEB",
        "meta_object_id": "1999-025BSB",
        "meta_epoch": "2025-12-11T13:43:18.328224",
        "meta_mean_motion": 14.04504261,
        "meta_eccentricity": 0.00777282,
        "meta_inclination": 98.7667,
        "meta_ra_of_asc_node": 18.6031,
        "meta_arg_of_pericenter": 249.9267,
        "meta_mean_anomaly": 109.3523,
        "meta_ephemeris_type": 0,
        "meta_classification_type": "U",
        "meta_norad_cat_id": 31371,
        "meta_element_set_no": 999,
        "meta_rev_at_epoch": 95730,
        "meta_bstar": 0.0010175497,
        "meta_mean_motion_dot": 1.625e-05,
        "meta_mean_motion_ddot": 0,
        "tle_line1": "1 31371U 99025BSB 25345.57173991  .00001625  00000+0  10175-2 0  9990",
        "tle_line2": "2 31371  98.7667  18.6031 0077728 249.9267 109.3523 14.04504261957303"
      },
      "geometry": {
        "type": "Point",
        "coordinates": [
          29.804502192284442,
          -48.68329394629566
        ]
      }
    },
    {
      "type": "Feature",
      "properties": {
        "norad_id": 31372,
        "name": "FENGYUN 1C DEB",
        "group": "fengyun-1c-debris",
        "lat": 46.546151996488476,
        "lon": -32.2992473638192,
        "alt_km": 777.5814473762457,
        "timestamp": "2025-12-12T16:50:33.426854+00:00",
        "meta_object_name": "FENGYUN 1C DEB",
        "meta_object_id": "1999-025BSC",
        "meta_epoch": "2025-12-12T04:50:20.035392",
        "meta_mean_motion": 14.26530754,
        "meta_eccentricity": 0.00338915,
        "meta_inclination": 99.3743,
        "meta_ra_of_asc_node": 337.207,
        "meta_arg_of_pericenter": 76.3876,
        "meta_mean_anomaly": 284.1073,
        "meta_ephemeris_type": 0,
        "meta_classification_type": "U",
        "meta_norad_cat_id": 31372,
        "meta_element_set_no": 999,
        "meta_rev_at_epoch": 95843,
        "meta_bstar": 0.0024967459,
        "meta_mean_motion_dot": 6.011e-05,
        "meta_mean_motion_ddot": 0,
        "tle_line1": "1 31372U 99025BSC 25346.20162078  .00006011  00000+0  24967-2 0  9994",
        "tle_line2": "2 31372  99.3743 337.2070 0033891  76.3876 284.1073 14.26530754958437"
      },
      "geometry": {
        "type": "Point",
        "coordinates": [
          -32.2992473638192,
          46.546151996488476
        ]
      }
    },
    {
      "type": "Feature",
      "properties": {
        "norad_id": 31376,
        "name": "FENGYUN 1C DEB",
        "group": "fengyun-1c-debris",
        "lat": -54.02014917028687,
        "lon": -84.71916571415933,
        "alt_km": 666.4348866077999,
        "timestamp": "2025-12-12T16:50:33.426864+00:00",
        "meta_object_name": "FENGYUN 1C DEB",
        "meta_object_id": "1999-025BSG",
        "meta_epoch": "2025-12-11T04:56:55.150368",
        "meta_mean_motion": 14.61649104,
        "meta_eccentricity": 0.00491331,
        "meta_inclination": 98.8337,
        "meta_ra_of_asc_node": 261.3153,
        "meta_arg_of_pericenter": 273.9545,
        "meta_mean_anomaly": 85.6038,
        "meta_ephemeris_type": 0,
        "meta_classification_type": "U",
        "meta_norad_cat_id": 31376,
        "meta_element_set_no": 999,
        "meta_rev_at_epoch": 98120,
        "meta_bstar": 0.0035183741,
        "meta_mean_motion_dot": 0.00017795,
        "meta_mean_motion_ddot": 0,
        "tle_line1": "1 31376U 99025BSG 25345.20619387  .00017795  00000+0  35184-2 0  9991",
        "tle_line2": "2 31376  98.8337 261.3153 0049133 273.9545  85.6038 14.61649104981202"
      },
      "geometry": {
        "type": "Point",
        "coordinates": [
          -84.71916571415933,
          -54.02014917028687
        ]
      }
    },
    {
      "type": "Feature",
      "properties": {
        "norad_id": 31378,
        "name": "FENGYUN 1C DEB",
        "group": "fengyun-1c-debris",
        "lat": -57.44631024250156,
        "lon": -107.0568729524062,
        "alt_km": 996.3766015998344,
        "timestamp": "2025-12-12T16:50:33.426874+00:00",
        "meta_object_name": "FENGYUN 1C DEB",
        "meta_object_id": "1999-025BSJ",
        "meta_epoch": "2025-12-11T21:59:42.993312",
        "meta_mean_motion": 13.80074441,
        "meta_eccentricity": 0.0168447,
        "meta_inclination": 100.7553,
        "meta_ra_of_asc_node": 234.7301,
        "meta_arg_of_pericenter": 199.9707,
        "meta_mean_anomaly": 159.4794,
        "meta_ephemeris_type": 0,
        "meta_classification_type": "U",
        "meta_norad_cat_id": 31378,
        "meta_element_set_no": 999,
        "meta_rev_at_epoch": 94212,
        "meta_bstar": 0.0009758,
        "meta_mean_motion_dot": 1.073e-05,
        "meta_mean_motion_ddot": 0,
        "tle_line1": "1 31378U 99025BSJ 25345.91646983  .00001073  00000+0  97580-3 0  9994",
        "tle_line2": "2 31378 100.7553 234.7301 0168447 199.9707 159.4794 13.80074441942126"
      },
      "geometry": {
        "type": "Point",
        "coordinates": [
          -107.0568729524062,
          -57.44631024250156
        ]
      }
    },
    {
      "type": "Feature",
      "properties": {
        "norad_id": 31381,
        "name": "FENGYUN 1C DEB",
        "group": "fengyun-1c-debris",
        "lat": 7.483175499998206,
        "lon": -108.76949101597911,
        "alt_km": 878.1343978323057,
        "timestamp": "2025-12-12T16:50:33.426884+00:00",
        "meta_object_name": "FENGYUN 1C DEB",
        "meta_object_id": "1999-025BSM",
        "meta_epoch": "2025-12-11T11:38:53.452032",
        "meta_mean_motion": 14.37039994,
        "meta_eccentricity": 0.01985983,
        "meta_inclination": 98.4925,
        "meta_ra_of_asc_node": 68.9047,
        "meta_arg_of_pericenter": 35.7153,
        "meta_mean_anomaly": 325.7133,
        "meta_ephemeris_type": 0,
        "meta_classification_type": "U",
        "meta_norad_cat_id": 31381,
        "meta_element_set_no": 999,
        "meta_rev_at_epoch": 97382,
        "meta_bstar": 0.00046825027,
        "meta_mean_motion_dot": 1.693e-05,
        "meta_mean_motion_ddot": 0,
        "tle_line1": "1 31381U 99025BSM 25345.48534088  .00001693  00000+0  46825-3 0  9996",
        "tle_line2": "2 31381  98.4925  68.9047 0198598  35.7153 325.7133 14.37039994973825"
      },
      "geometry": {
        "type": "Point",
        "coordinates": [
          -108.76949101597911,
          7.483175499998206
        ]
      }
    }
  ]
}